{
  "type": "FeatureCollection",
  "features": [
    {
      "type": "Feature",
      "properties": {
        "norad_id": 55973,
        "name": "TIANMU-1 03",
        "group": "weather",
        "lat": 74.87618703383366,
        "lon": -5.421592343495448,
        "alt_km": 434.148978441548,
        "timestamp": "2025-12-08T19:31:48.474771+00:00",
        "meta_object_name": "TIANMU-1 03",
        "meta_object_id": "2023-039A",
        "meta_epoch": "2025-12-08T06:36:53.199936",
        "meta_mean_motion": 15.40725277,
        "meta_eccentricity": 0.00045345,
        "meta_inclination": 97.5111,
        "meta_ra_of_asc_node": 144.8034,
        "meta_arg_of_pericenter": 73.8781,
        "meta_mean_anomaly": 286.2964,
        "meta_ephemeris_type": 0,
        "meta_classification_type": "U",
        "meta_norad_cat_id": 55973,
        "meta_element_set_no": 999,
        "meta_rev_at_epoch": 15137,
        "meta_bstar": 0.00046706684,
        "meta_mean_motion_dot": 0.00019027,
        "meta_mean_motion_ddot": 0,
        "tle_line1": "1 55973U 23039A   25342.27561574  .00019027  00000+0  46707-3 0  9994",
        "tle_line2": "2 55973  97.5111 144.8034 0004534  73.8781 286.2964 15.40725277151373"
      },
      "geometry": {
        "type": "Point",
        "coordinates": [
          -5.421592343495448,
          74.87618703383366
        ]
      }
    },
    {
      "type": "Feature",
      "properties": {
        "norad_id": 55974,
        "name": "TIANMU-1 04",
        "group": "weather",
        "lat": -32.176254890395974,
        "lon": -40.20836253358801,
        "alt_km": 452.0139885172448,
        "timestamp": "2025-12-08T19:31:48.474780+00:00",
        "meta_object_name": "TIANMU-1 04",
        "meta_object_id": "2023-039B",
        "meta_epoch": "2025-12-08T06:08:41.071488",
        "meta_mean_motion": 15.41058508,
        "meta_eccentricity": 0.00051983,
        "meta_inclination": 97.5044,
        "meta_ra_of_asc_node": 143.9763,
        "meta_arg_of_pericenter": 69.4045,
        "meta_mean_anomaly": 290.7758,
        "meta_ephemeris_type": 0,
        "meta_classification_type": "U",
        "meta_norad_cat_id": 55974,
        "meta_element_set_no": 999,
        "meta_rev_at_epoch": 15137,
        "meta_bstar": 0.00046097021,
        "meta_mean_motion_dot": 0.00018988,
        "meta_mean_motion_ddot": 0,
        "tle_line1": "1 55974U 23039B   25342.25603092  .00018988  00000+0  46097-3 0  9992",
        "tle_line2": "2 55974  97.5044 143.9763 0005198  69.4045 290.7758 15.41058508151377"
      },
      "geometry": {
        "type": "Point",
        "coordinates": [
          -40.20836253358801,
          -32.176254890395974
        ]
      }
    },
    {
      "type": "Feature",
      "properties": {
        "norad_id": 55975,
        "name": "TIANMU-1 05",
        "group": "weather",
        "lat": -68.3461739352506,
        "lon": -54.36362678315884,
        "alt_km": 454.13734070031296,
        "timestamp": "2025-12-08T19:31:48.474789+00:00",
        "meta_object_name": "TIANMU-1 05",
        "meta_object_id": "2023-039C",
        "meta_epoch": "2025-12-08T07:32:20.537376",
        "meta_mean_motion": 15.40685179,
        "meta_eccentricity": 0.00043708,
        "meta_inclination": 97.5089,
        "meta_ra_of_asc_node": 144.528,
        "meta_arg_of_pericenter": 90.4516,
        "meta_mean_anomaly": 269.7231,
        "meta_ephemeris_type": 0,
        "meta_classification_type": "U",
        "meta_norad_cat_id": 55975,
        "meta_element_set_no": 999,
        "meta_rev_at_epoch": 15136,
        "meta_bstar": 0.0004648669,
        "meta_mean_motion_dot": 0.00018912,
        "meta_mean_motion_ddot": 0,
        "tle_line1": "1 55975U 23039C   25342.31412659  .00018912  00000+0  46487-3 0  9997",
        "tle_line2": "2 55975  97.5089 144.5280 0004370  90.4516 269.7231 15.40685179151366"
      },
      "geometry": {
        "type": "Point",
        "coordinates": [
          -54.36362678315884,
          -68.3461739352506
        ]
      }
    },
    {
      "type": "Feature",
      "properties": {
        "norad_id": 55976,
        "name": "TIANMU-1 06",
        "group": "weather",
        "lat": -19.540058764213494,
        "lon": -37.180454501503874,
        "alt_km": 449.41386744827014,
        "timestamp": "2025-12-08T19:31:48.474805+00:00",
        "meta_object_name": "TIANMU-1 06",
        "meta_object_id": "2023-039D",
        "meta_epoch": "2025-12-08T06:12:02.096640",
        "meta_mean_motion": 15.41110889,
        "meta_eccentricity": 0.00047003,
        "meta_inclination": 97.5101,
        "meta_ra_of_asc_node": 144.9323,
        "meta_arg_of_pericenter": 85.9317,
        "meta_mean_anomaly": 274.2466,
        "meta_ephemeris_type": 0,
        "meta_classification_type": "U",
        "meta_norad_cat_id": 55976,
        "meta_element_set_no": 999,
        "meta_rev_at_epoch": 15137,
        "meta_bstar": 0.00045684925,
        "meta_mean_motion_dot": 0.00018848,
        "meta_mean_motion_ddot": 0,
        "tle_line1": "1 55976U 23039D   25342.25835760  .00018848  00000+0  45685-3 0  9990",
        "tle_line2": "2 55976  97.5101 144.9323 0004700  85.9317 274.2466 15.41110889151373"
      },
      "geometry": {
        "type": "Point",
        "coordinates": [
          -37.180454501503874,
          -19.540058764213494
        ]
      }
    },
    {
      "type": "Feature",
      "properties": {
        "norad_id": 56232,
        "name": "FENGYUN 3G",
        "group": "weather",
        "lat": 47.570580073682095,
        "lon": -45.534089355175766,
        "alt_km": 396.8220429507064,
        "timestamp": "2025-12-08T19:31:48.474815+00:00",
        "meta_object_name": "FENGYUN 3G",
        "meta_object_id": "2023-055A",
        "meta_epoch": "2025-12-08T05:18:54.436032",
        "meta_mean_motion": 15.53244582,
        "meta_eccentricity": 0.00092148,
        "meta_inclination": 49.9938,
        "meta_ra_of_asc_node": 250.7645,
        "meta_arg_of_pericenter": 127.1084,
        "meta_mean_anomaly": 233.0726,
        "meta_ephemeris_type": 0,
        "meta_classification_type": "U",
        "meta_norad_cat_id": 56232,
        "meta_element_set_no": 999,
        "meta_rev_at_epoch": 15032,
        "meta_bstar": 0.00061486039,
        "meta_mean_motion_dot": 0.00039258,
        "meta_mean_motion_ddot": 0,
        "tle_line1": "1 56232U 23055A   25342.22146338  .00039258  00000+0  61486-3 0  9992",
        "tle_line2": "2 56232  49.9938 250.7645 0009214 127.1084 233.0726 15.53244582150323"
      },
      "geometry": {
        "type": "Point",
        "coordinates": [
          -45.534089355175766,
          47.570580073682095
        ]
      }
    },
    {
      "type": "Feature",
      "properties": {
        "norad_id": 57166,
        "name": "METEOR-M2 3",
        "group": "weather",
        "lat": -66.39909072957794,
        "lon": 56.78325407012427,
        "alt_km": 818.8486081923593,
        "timestamp": "2025-12-08T19:31:48.474824+00:00",
        "meta_object_name": "METEOR-M2 3",
        "meta_object_id": "2023-091A",
        "meta_epoch": "2025-12-08T06:21:29.069856",
        "meta_mean_motion": 14.24025358,
        "meta_eccentricity": 0.00041587,
        "meta_inclination": 98.6385,
        "meta_ra_of_asc_node": 35.8823,
        "meta_arg_of_pericenter": 21.1148,
        "meta_mean_anomaly": 339.0201,
        "meta_ephemeris_type": 0,
        "meta_classification_type": "U",
        "meta_norad_cat_id": 57166,
        "meta_element_set_no": 999,
        "meta_rev_at_epoch": 12734,
        "meta_bstar": 4.5122806e-05,
        "meta_mean_motion_dot": 6e-07,
        "meta_mean_motion_ddot": 0,
        "tle_line1": "1 57166U 23091A   25342.26491979  .00000060  00000+0  45123-4 0  9997",
        "tle_line2": "2 57166  98.6385  35.8823 0004158  21.1148 339.0201 14.24025358127349"
      },
      "geometry": {
        "type": "Point",
        "coordinates": [
          56.78325407012427,
          -66.39909072957794
        ]
      }
    },
    {
      "type": "Feature",
      "properties": {
        "norad_id": 57399,
        "name": "TIANMU-1 07",
        "group": "weather",
        "lat": 82.48803813879776,
        "lon": -71.20172306420501,
        "alt_km": 470.511526043274,
        "timestamp": "2025-12-08T19:31:48.474833+00:00",
        "meta_object_name": "TIANMU-1 07",
        "meta_object_id": "2023-101A",
        "meta_epoch": "2025-12-08T06:33:23.139072",
        "meta_mean_motion": 15.2797354,
        "meta_eccentricity": 0.0005632,
        "meta_inclination": 97.2877,
        "meta_ra_of_asc_node": 32.2217,
        "meta_arg_of_pericenter": 92.7603,
        "meta_mean_anomaly": 267.4281,
        "meta_ephemeris_type": 0,
        "meta_classification_type": "U",
        "meta_norad_cat_id": 57399,
        "meta_element_set_no": 999,
        "meta_rev_at_epoch": 13247,
        "meta_bstar": 0.00036081818,
        "meta_mean_motion_dot": 9.783e-05,
        "meta_mean_motion_ddot": 0,
        "tle_line1": "1 57399U 23101A   25342.27318448  .00009783  00000+0  36082-3 0  9991",
        "tle_line2": "2 57399  97.2877  32.2217 0005632  92.7603 267.4281 15.27973540132475"
      },
      "geometry": {
        "type": "Point",
        "coordinates": [
          -71.20172306420501,
          82.48803813879776
        ]
      }
    }
  ]
}